{
  "type": "FeatureCollection",
  "features": [
    {
      "type": "Feature",
      "properties": {
        "OBJECT_NAME": "OSCAR 24",
        "OBJECT_ID": "1985-066B",
        "EPOCH": "2025-11-29T20:29:50.477280",
        "MEAN_MOTION": 13.35932797,
        "ECCENTRICITY": 0.0170296,
        "INCLINATION": 90.1783,
        "RA_OF_ASC_NODE": 92.0776,
        "ARG_OF_PERICENTER": 126.3161,
        "MEAN_ANOMALY": 345.9219,
        "EPHEMERIS_TYPE": 0,
        "CLASSIFICATION_TYPE": "U",
        "NORAD_CAT_ID": 15936,
        "ELEMENT_SET_NO": 999,
        "REV_AT_EPOCH": 96471,
        "BSTAR": 0.00014406,
        "MEAN_MOTION_DOT": 9e-07,
        "MEAN_MOTION_DDOT": 0,
        "norad_id": 15936,
        "name": "OSCAR 24",
        "group": "nnss",
        "longitude_deg": NaN,
        "latitude_deg": NaN,
        "alt_km": NaN,
        "orbit_class": "HEO",
        "timestamp": "2025-11-30T04:57:05.890960+00:00"
      },
      "geometry": {
        "type": "Point",
        "coordinates": [
          NaN,
          NaN
        ]
      }
    },
    {
      "type": "Feature",
      "properties": {
        "OBJECT_NAME": "POLAR BEAR",
        "OBJECT_ID": "1986-088A",
        "EPOCH": "2025-11-29T15:56:49.699104",
        "MEAN_MOTION": 13.75246809,
        "ECCENTRICITY": 0.003994,
        "INCLINATION": 89.6183,
        "RA_OF_ASC_NODE": 184.2963,
        "ARG_OF_PERICENTER": 157.4541,
        "MEAN_ANOMALY": 271.5194,
        "EPHEMERIS_TYPE": 0,
        "CLASSIFICATION_TYPE": "U",
        "NORAD_CAT_ID": 17070,
        "ELEMENT_SET_NO": 999,
        "REV_AT_EPOCH": 95799,
        "BSTAR": 0.00011146,
        "MEAN_MOTION_DOT": 1.19e-06,
        "MEAN_MOTION_DDOT": 0,
        "norad_id": 17070,
        "name": "POLAR BEAR",
        "group": "nnss",
        "longitude_deg": NaN,
        "latitude_deg": NaN,
        "alt_km": NaN,
        "orbit_class": "HEO",
        "timestamp": "2025-11-30T04:57:05.890967+00:00"
      },
      "geometry": {
        "type": "Point",
        "coordinates": [
          NaN,
          NaN
        ]
      }
    },
    {
      "type": "Feature",
      "properties": {
        "OBJECT_NAME": "OSCAR 27",
        "OBJECT_ID": "1987-080A",
        "EPOCH": "2025-11-29T19:44:50.807328",
        "MEAN_MOTION": 13.44902545,
        "ECCENTRICITY": 0.0102176,
        "INCLINATION": 90.3741,
        "RA_OF_ASC_NODE": 78.7891,
        "ARG_OF_PERICENTER": 261.3144,
        "MEAN_ANOMALY": 97.6419,
        "EPHEMERIS_TYPE": 0,
        "CLASSIFICATION_TYPE": "U",
        "NORAD_CAT_ID": 18361,
        "ELEMENT_SET_NO": 999,
        "REV_AT_EPOCH": 87383,
        "BSTAR": 0.00018705,
        "MEAN_MOTION_DOT": 1.2e-06,
        "MEAN_MOTION_DDOT": 0,
        "norad_id": 18361,
        "name": "OSCAR 27",
        "group": "nnss",
        "longitude_deg": NaN,
        "latitude_deg": NaN,
        "alt_km": NaN,
        "orbit_class": "HEO",
        "timestamp": "2025-11-30T04:57:05.890975+00:00"
      },
      "geometry": {
        "type": "Point",
        "coordinates": [
          NaN,
          NaN
        ]
      }
    },
    {
      "type": "Feature",
      "properties": {
        "OBJECT_NAME": "OSCAR 29",
        "OBJECT_ID": "1987-080B",
        "EPOCH": "2025-11-29T20:09:04.769856",
        "MEAN_MOTION": 13.44444811,
        "ECCENTRICITY": 0.010363,
        "INCLINATION": 90.3754,
        "RA_OF_ASC_NODE": 79.2475,
        "ARG_OF_PERICENTER": 284.7189,
        "MEAN_ANOMALY": 189.1031,
        "EPHEMERIS_TYPE": 0,
        "CLASSIFICATION_TYPE": "U",
        "NORAD_CAT_ID": 18362,
        "ELEMENT_SET_NO": 999,
        "REV_AT_EPOCH": 87336,
        "BSTAR": 0.00016075,
        "MEAN_MOTION_DOT": 1.04e-06,
        "MEAN_MOTION_DDOT": 0,
        "norad_id": 18362,
        "name": "OSCAR 29",
        "group": "nnss",
        "longitude_deg": NaN,
        "latitude_deg": NaN,
        "alt_km": NaN,
        "orbit_class": "HEO",
        "timestamp": "2025-11-30T04:57:05.890981+00:00"
      },
      "geometry": {
        "type": "Point",
        "coordinates": [
          NaN,
          NaN
        ]
      }
    },
    {
      "type": "Feature",
      "properties": {
        "OBJECT_NAME": "OSCAR 23",
        "OBJECT_ID": "1988-033A",
        "EPOCH": "2025-11-29T15:37:46.080192",
        "MEAN_MOTION": 13.27784172,
        "ECCENTRICITY": 0.0188473,
        "INCLINATION": 90.3228,
        "RA_OF_ASC_NODE": 15.9861,
        "ARG_OF_PERICENTER": 216.3933,
        "MEAN_ANOMALY": 265.4085,
        "EPHEMERIS_TYPE": 0,
        "CLASSIFICATION_TYPE": "U",
        "NORAD_CAT_ID": 19070,
        "ELEMENT_SET_NO": 999,
        "REV_AT_EPOCH": 82079,
        "BSTAR": 0.00015567,
        "MEAN_MOTION_DOT": 8.5e-07,
        "MEAN_MOTION_DDOT": 0,
        "norad_id": 19070,
        "name": "OSCAR 23",
        "group": "nnss",
        "longitude_deg": NaN,
        "latitude_deg": NaN,
        "alt_km": NaN,
        "orbit_class": "HEO",
        "timestamp": "2025-11-30T04:57:05.890987+00:00"
      },
      "geometry": {
        "type": "Point",
        "coordinates": [
          NaN,
          NaN
        ]
      }
    },
    {
      "type": "Feature",
      "properties": {
        "OBJECT_NAME": "OSCAR 32",
        "OBJECT_ID": "1988-033B",
        "EPOCH": "2025-11-29T16:55:06.218976",
        "MEAN_MOTION": 13.27951248,
        "ECCENTRICITY": 0.0187279,
        "INCLINATION": 90.3233,
        "RA_OF_ASC_NODE": 16.119,
        "ARG_OF_PERICENTER": 203.0527,
        "MEAN_ANOMALY": 277.7988,
        "EPHEMERIS_TYPE": 0,
        "CLASSIFICATION_TYPE": "U",
        "NORAD_CAT_ID": 19071,
        "ELEMENT_SET_NO": 999,
        "REV_AT_EPOCH": 82092,
        "BSTAR": 0.00010226,
        "MEAN_MOTION_DOT": 5.9e-07,
        "MEAN_MOTION_DDOT": 0,
        "norad_id": 19071,
        "name": "OSCAR 32",
        "group": "nnss",
        "longitude_deg": NaN,
        "latitude_deg": NaN,
        "alt_km": NaN,
        "orbit_class": "HEO",
        "timestamp": "2025-11-30T04:57:05.890995+00:00"
      },
      "geometry": {
        "type": "Point",
        "coordinates": [
          NaN,
          NaN
        ]
      }
    },
    {
      "type": "Feature",
      "properties": {
        "OBJECT_NAME": "NOVA 2",
        "OBJECT_ID": "1988-052A",
        "EPOCH": "2025-11-29T20:11:48.838272",
        "MEAN_MOTION": 13.2293355,
        "ECCENTRICITY": 0.003159,
        "INCLINATION": 89.9871,
        "RA_OF_ASC_NODE": 78.2882,
        "ARG_OF_PERICENTER": 51.5657,
        "MEAN_ANOMALY": 71.8551,
        "EPHEMERIS_TYPE": 0,
        "CLASSIFICATION_TYPE": "U",
        "NORAD_CAT_ID": 19223,
        "ELEMENT_SET_NO": 999,
        "REV_AT_EPOCH": 80777,
        "BSTAR": 1.5706e-05,
        "MEAN_MOTION_DOT": 1.6e-07,
        "MEAN_MOTION_DDOT": 0,
        "norad_id": 19223,
        "name": "NOVA 2",
        "group": "nnss",
        "longitude_deg": NaN,
        "latitude_deg": NaN,
        "alt_km": NaN,
        "orbit_class": "HEO",
        "timestamp": "2025-11-30T04:57:05.891004+00:00"
      },
      "geometry": {
        "type": "Point",
        "coordinates": [
          NaN,
          NaN
        ]
      }
    },
    {
      "type": "Feature",
      "properties": {
        "OBJECT_NAME": "OSCAR 25",
        "OBJECT_ID": "1988-074A",
        "EPOCH": "2025-11-29T04:21:36.849600",
        "MEAN_MOTION": 13.42619369,
        "ECCENTRICITY": 0.00941887,
        "INCLINATION": 90.0361,
        "RA_OF_ASC_NODE": 20.1987,
        "ARG_OF_PERICENTER": 285.2444,
        "MEAN_ANOMALY": 133.9908,
        "EPHEMERIS_TYPE": 0,
        "CLASSIFICATION_TYPE": "U",
        "NORAD_CAT_ID": 19419,
        "ELEMENT_SET_NO": 999,
        "REV_AT_EPOCH": 82458,
        "BSTAR": 0.00017240494,
        "MEAN_MOTION_DOT": 1.08e-06,
        "MEAN_MOTION_DDOT": 0,
        "norad_id": 19419,
        "name": "OSCAR 25",
        "group": "nnss",
        "longitude_deg": NaN,
        "latitude_deg": NaN,
        "alt_km": NaN,
        "orbit_class": "HEO",
        "timestamp": "2025-11-30T04:57:05.891010+00:00"
      },
      "geometry": {
        "type": "Point",
        "coordinates": [
          NaN,
          NaN
        ]
      }
    },
    {
      "type": "Feature",
      "properties": {
        "OBJECT_NAME": "OSCAR 31",
        "OBJECT_ID": "1988-074B",
        "EPOCH": "2025-11-29T17:45:50.466816",
        "MEAN_MOTION": 13.42581314,
        "ECCENTRICITY": 0.0092401,
        "INCLINATION": 90.0377,
        "RA_OF_ASC_NODE": 20.5486,
        "ARG_OF_PERICENTER": 277.7289,
        "MEAN_ANOMALY": 204.906,
        "EPHEMERIS_TYPE": 0,
        "CLASSIFICATION_TYPE": "U",
        "NORAD_CAT_ID": 19420,
        "ELEMENT_SET_NO": 999,
        "REV_AT_EPOCH": 82476,
        "BSTAR": 0.00012607,
        "MEAN_MOTION_DOT": 8.1e-07,
        "MEAN_MOTION_DDOT": 0,
        "norad_id": 19420,
        "name": "OSCAR 31",
        "group": "nnss",
        "longitude_deg": NaN,
        "latitude_deg": NaN,
        "alt_km": NaN,
        "orbit_class": "HEO",
        "timestamp": "2025-11-30T04:57:05.891018+00:00"
      },
      "geometry": {
        "type": "Point",
        "coordinates": [
          NaN,
          NaN
        ]
      }
    }
  ]
}